QIANFAN-81              
1 63167U 25046J   26022.22348679  .00000329  00000+0  49004-3 0  9996
2 63167  88.9797 315.6892 0015682  10.5508 349.5969 13.51019980 52951
QIANFAN-82              
1 63168U 25046K   26022.25835393  .00000329  00000+0  49137-3 0  9991
2 63168  88.9797 315.7297 0014045  18.5622 341.6038 13.50992975 52941
QIANFAN-83              
1 63169U 25046L   26022.17887756  .00000424  00000+0  53388-3 0  9992
2 63169  88.9797 315.4349 0014780   2.6246 357.4986 13.61996167 53104
QIANFAN-84              
1 63170U 25046M   26022.21178357  .00000338  00000+0  50495-3 0  9999
2 63170  88.9796 315.8669 0016899  14.2325 345.9299 13.51002530 52866
QIANFAN-85              
1 63171U 25046N   26022.28291275  .00000325  00000+0  48404-3 0  9995
2 63171  88.9796 315.7313 0014368  17.2429 342.9208 13.50991825 52948
QIANFAN-86              
1 63172U 25046P   26022.21716722  .00000335  00000+0  50021-3 0  9997
2 63172  88.9798 315.6012 0012378  22.4381 337.7309 13.50993647 53017
QIANFAN-87              
1 63173U 25046Q   26022.26262680  .00000325  00000+0  48400-3 0  9999
2 63173  88.9794 315.7066 0012894  17.7221 342.4377 13.50991280 52958
QIANFAN-88              
1 63174U 25046R   26022.27876909  .00000339  00000+0  50625-3 0  9993
2 63174  88.9797 315.6604 0013499  24.6417 335.5376 13.50997475 52982
